[{"OBJECT_NAME":"STARLINK-33987","OBJECT_ID":"2025-094K","EPOCH":"2026-03-09T21:13:28.140672","MEAN_MOTION":14.98338803,"ECCENTRICITY":0.00031592,"INCLINATION":70.0016,"RA_OF_ASC_NODE":233.9125,"ARG_OF_PERICENTER":275.9002,"MEAN_ANOMALY":84.1796,"EPHEMERIS_TYPE":0,"CLASSIFICATION_TYPE":"U","NORAD_CAT_ID":63873,"ELEMENT_SET_NO":999,"REV_AT_EPOCH":4723,"BSTAR":0.00073663621,"MEAN_MOTION_DOT":8.709e-5,"MEAN_MOTION_DDOT":0},{"OBJECT_NAME":"CZ-4B DEB","OBJECT_ID":"2013-057F","EPOCH":"2026-03-09T03:59:35.491200","MEAN_MOTION":14.62993298,"ECCENTRICITY":0.0160754,"INCLINATION":74.9188,"RA_OF_ASC_NODE":336.3162,"ARG_OF_PERICENTER":85.8895,"MEAN_ANOMALY":276.0632,"EPHEMERIS_TYPE":0,"CLASSIFICATION_TYPE":"U","NORAD_CAT_ID":40533,"ELEMENT_SET_NO":999,"REV_AT_EPOCH":57882,"BSTAR":0.0010233869,"MEAN_MOTION_DOT":6.305e-5,"MEAN_MOTION_DDOT":0}]
